{
  "type": "FeatureCollection",
  "features": [
    {
      "type": "Feature",
      "properties": {
        "zone_id": 4,
        "name": "Zone 4",
        "name_th": "โซน 4",
        "region": "north",
        "basis": "conceptual_water_flow",
        "fill": "#6EDDE2",
        "fill-opacity": 0.58,
        "stroke": "#3A989D",
        "stroke-width": 2
      },
      "geometry": {
        "type": "Polygon",
        "coordinates": [
          [
            [
              100.53093530899997,
              7.143299387000013
            ],
            [
              100.524289527,
              7.145167040999979
            ],
            [
              100.46220998500002,
              7.187041115999989
            ],
            [
              100.452113209,
              7.157072449999987
            ],
            [
              100.45373435,
              7.130797259000019
            ],
            [
              100.45722548200001,
              7.122561744
            ],
            [
              100.45861806200003,
              7.110948291
            ],
            [
              100.461857624,
              7.107704442
            ],
            [
              100.466887885,
              7.108372404000022
            ],
            [
              100.46960649200003,
              7.10085668
            ],
            [
              100.47283481599999,
              7.098466143999985
            ],
            [
              100.47180343999997,
              7.093370780999976
            ],
            [
              100.47550500099999,
              7.091281558
            ],
            [
              100.474919382,
              7.08641507599998
            ],
            [
              100.47777893099999,
              7.083654561
            ],
            [
              100.476389627,
              7.079958008
            ],
            [
              100.479517907,
              7.079424924000023
            ],
            [
              100.48170284100001,
              7.075980346999984
            ],
            [
              100.479986274,
              7.074993087999985
            ],
            [
              100.47358729799998,
              7.075195119
            ],
            [
              100.472173602,
              7.071680668999988
            ],
            [
              100.46983883899998,
              7.073616765999986
            ],
            [
              100.46723179000003,
              7.072490427
            ],
            [
              100.464254659,
              7.067661180000016
            ],
            [
              100.459011348,
              7.065440790000025
            ],
            [
              100.457436761,
              7.060217930000022
            ],
            [
              100.44707365099998,
              7.059591430000012
            ],
            [
              100.43555139,
              7.060975333999977
            ],
            [
              100.435455853,
              7.057331751999982
            ],
            [
              100.44174505108748,
              7.053664735429061
            ],
            [
              100.44585320302689,
              7.054002982380198
            ],
            [
              100.44996237883058,
              7.054330934934523
            ],
            [
              100.45404358702264,
              7.054938667361185
            ],
            [
              100.45814619891537,
              7.055332220662509
            ],
            [
              100.46217807621981,
              7.056433602019005
            ],
            [
              100.46625256342236,
              7.05710861604635
            ],
            [
              100.4703347424,
              7.057706650137847
            ],
            [
              100.47444088341518,
              7.058064816222077
            ],
            [
              100.47840936687712,
              7.0598010246441385
            ],
            [
              100.48242459610167,
              7.061069417954968
            ],
            [
              100.48643480550116,
              7.062388188772033
            ],
            [
              100.49048094678687,
              7.063347271543286
            ],
            [
              100.49457215922992,
              7.063855042351445
            ],
            [
              100.49861838106953,
              7.064813394961473
            ],
            [
              100.50275655776663,
              7.064850746262523
            ],
            [
              100.50681242214168,
              7.065712539553581
            ],
            [
              100.51102032980296,
              7.065051167358131
            ],
            [
              100.51516802293239,
              7.064992858546378
            ],
            [
              100.51932045015542,
              7.064886987914442
            ],
            [
              100.52338905198391,
              7.0656209922726045
            ],
            [
              100.52755749710828,
              7.065354398485983
            ],
            [
              100.53165158781255,
              7.0658328765673115
            ],
            [
              100.53577626507683,
              7.0660047353488755
            ],
            [
              100.53996545996841,
              7.065529747504139
            ],
            [
              100.54409591759975,
              7.065643425616141
            ],
            [
              100.5482388918974,
              7.065631510453973
            ],
            [
              100.55234259816106,
              7.066013227285531
            ],
            [
              100.55648241113448,
              7.06603281089836
            ],
            [
              100.56061606945657,
              7.066114005863382
            ],
            [
              100.564740704889,
              7.066285597061792
            ],
            [
              100.56885752303963,
              7.066535515446053
            ],
            [
              100.57297892623842,
              7.066739364284258
            ],
            [
              100.57022226499998,
              7.06662487
            ],
            [
              100.56659359399998,
              7.069225959
            ],
            [
              100.563982152,
              7.093268656000021
            ],
            [
              100.56476168900002,
              7.094298771000012
            ],
            [
              100.56308884600003,
              7.094433904000027
            ],
            [
              100.56276687899998,
              7.108110108
            ],
            [
              100.558371744,
              7.110434899999973
            ],
            [
              100.556572469,
              7.116204093000022
            ],
            [
              100.55704014600002,
              7.123024932000021
            ],
            [
              100.554191958,
              7.126188867999986
            ],
            [
              100.55784781400001,
              7.129077966000011
            ],
            [
              100.55722058999999,
              7.135884428
            ],
            [
              100.560968404,
              7.137188932000015
            ],
            [
              100.56221509300002,
              7.139248474
            ],
            [
              100.56194849299999,
              7.141270642999984
            ],
            [
              100.55747459399998,
              7.142706120000014
            ],
            [
              100.56014978000002,
              7.147913706999987
            ],
            [
              100.55492451700002,
              7.15092719
            ],
            [
              100.54329561999998,
              7.145188784000027
            ],
            [
              100.53093530899997,
              7.143299387000013
            ]
          ]
        ]
      }
    }
  ]
}
