{
  "type": "FeatureCollection",
  "features": [
    {
      "type": "Feature",
      "properties": {
        "zone_id": 3,
        "name": "Zone 3",
        "name_th": "โซน 3",
        "region": "central_east",
        "basis": "conceptual_water_flow",
        "fill": "#55A7D9",
        "fill-opacity": 0.58,
        "stroke": "#326E94",
        "stroke-width": 2
      },
      "geometry": {
        "type": "Polygon",
        "coordinates": [
          [
            [
              100.57297892623842,
              7.066739364284258
            ],
            [
              100.56885752303963,
              7.066535515446053
            ],
            [
              100.564740704889,
              7.066285597061792
            ],
            [
              100.56061606945657,
              7.066114005863382
            ],
            [
              100.55648241113448,
              7.06603281089836
            ],
            [
              100.55234259816106,
              7.066013227285531
            ],
            [
              100.5482388918974,
              7.065631510453973
            ],
            [
              100.54409591759975,
              7.065643425616141
            ],
            [
              100.53996545996841,
              7.065529747504139
            ],
            [
              100.53577626507683,
              7.0660047353488755
            ],
            [
              100.53165158781255,
              7.0658328765673115
            ],
            [
              100.52755749710828,
              7.065354398485983
            ],
            [
              100.52338905198391,
              7.0656209922726045
            ],
            [
              100.51932045015542,
              7.064886987914442
            ],
            [
              100.51516802293239,
              7.064992858546378
            ],
            [
              100.51102032980296,
              7.065051167358131
            ],
            [
              100.50681242214168,
              7.065712539553581
            ],
            [
              100.50275655776663,
              7.064850746262523
            ],
            [
              100.49861838106953,
              7.064813394961473
            ],
            [
              100.49457215922992,
              7.063855042351445
            ],
            [
              100.49048094678687,
              7.063347271543286
            ],
            [
              100.48643480550116,
              7.062388188772033
            ],
            [
              100.48242459610167,
              7.061069417954968
            ],
            [
              100.47840936687712,
              7.0598010246441385
            ],
            [
              100.47444088341518,
              7.058064816222077
            ],
            [
              100.4703347424,
              7.057706650137847
            ],
            [
              100.46625256342236,
              7.05710861604635
            ],
            [
              100.46217807621981,
              7.056433602019005
            ],
            [
              100.45814619891537,
              7.055332220662509
            ],
            [
              100.45404358702264,
              7.054938667361185
            ],
            [
              100.44996237883058,
              7.054330934934523
            ],
            [
              100.44585320302689,
              7.054002982380198
            ],
            [
              100.44174505108748,
              7.053664735429061
            ],
            [
              100.441882201,
              7.053584768
            ],
            [
              100.44469059300002,
              7.049674519
            ],
            [
              100.44161940700002,
              7.045023465999975
            ],
            [
              100.44196784000002,
              7.042284687
            ],
            [
              100.43911964300003,
              7.034612260000017
            ],
            [
              100.452632983,
              7.027981577999981
            ],
            [
              100.450216071,
              7.023198588000014
            ],
            [
              100.452212939,
              7.02036422499998
            ],
            [
              100.45051993300001,
              7.016808095999977
            ],
            [
              100.448273954,
              7.017388461999985
            ],
            [
              100.44844296100001,
              7.016352611
            ],
            [
              100.44582021899998,
              7.014607721
            ],
            [
              100.44125100100001,
              7.015915783000025
            ],
            [
              100.43841038900001,
              7.012604419000013
            ],
            [
              100.43177282300002,
              7.009081346000016
            ],
            [
              100.42898629299998,
              7.005529540999987
            ],
            [
              100.42524431200002,
              7.005035258000021
            ],
            [
              100.42109454000001,
              7.000515807
            ],
            [
              100.41749732800002,
              7.000918205
            ],
            [
              100.412988154,
              6.998833296999976
            ],
            [
              100.413457339,
              6.997491329000013
            ],
            [
              100.40956206200002,
              6.997207958999979
            ],
            [
              100.4095572515558,
              6.997198496350132
            ],
            [
              100.4095572515558,
              6.99719849635013
            ],
            [
              100.41035126964657,
              6.995377096912851
            ],
            [
              100.41114152147892,
              6.993554509413684
            ],
            [
              100.41220481841769,
              6.991818152033966
            ],
            [
              100.41332080945257,
              6.990098436897785
            ],
            [
              100.41393097111721,
              6.988218980428345
            ],
            [
              100.41452181154277,
              6.986333423378613
            ],
            [
              100.41538960507177,
              6.984535330671125
            ],
            [
              100.41613681835031,
              6.982699159482925
            ],
            [
              100.41742323538638,
              6.9810332727388325
            ],
            [
              100.41884397932472,
              6.9794098077435
            ],
            [
              100.41962239968022,
              6.977583496238614
            ],
            [
              100.4196301826631,
              6.975513815504781
            ],
            [
              100.4214417040389,
              6.974013764082709
            ],
            [
              100.42325547489254,
              6.972514422117541
            ],
            [
              100.42540014898341,
              6.971119577590262
            ],
            [
              100.4269288882898,
              6.96953022144495
            ],
            [
              100.42787320595161,
              6.9677563085621275
            ],
            [
              100.42890776106954,
              6.966010893562709
            ],
            [
              100.42913418496894,
              6.964010275780752
            ],
            [
              100.42972608124464,
              6.962125073541326
            ],
            [
              100.4304426211998,
              6.96027923464756
            ],
            [
              100.43096777641625,
              6.958372958039854
            ],
            [
              100.43006103672731,
              6.956014487700989
            ],
            [
              100.42954493977923,
              6.953779378092045
            ],
            [
              100.42978443958374,
              6.9517828896236455
            ],
            [
              100.43000138827918,
              6.949779279501194
            ],
            [
              100.42960809465684,
              6.947582946744955
            ],
            [
              100.42932793951516,
              6.945422342057317
            ],
            [
              100.42899065424763,
              6.943243692177853
            ],
            [
              100.42892593631349,
              6.9411511228504885
            ],
            [
              100.42874343659433,
              6.939021353879484
            ],
            [
              100.4286268095366,
              6.936912387684429
            ],
            [
              100.4286268095366,
              6.936912387684428
            ],
            [
              100.42876239700001,
              6.936999029
            ],
            [
              100.43319566000002,
              6.93656108
            ],
            [
              100.43984851200003,
              6.93978407100002
            ],
            [
              100.441329935,
              6.936922192
            ],
            [
              100.43987789,
              6.935454535000019
            ],
            [
              100.44075983200003,
              6.932856610999977
            ],
            [
              100.43995784499998,
              6.930023837000022
            ],
            [
              100.442085958,
              6.92875533900002
            ],
            [
              100.44465445600002,
              6.931049222000013
            ],
            [
              100.44657465300003,
              6.931064653000021
            ],
            [
              100.4466230737718,
              6.930437640631894
            ],
            [
              100.4466230737718,
              6.9304376406318955
            ],
            [
              100.44889815234927,
              6.930971418780971
            ],
            [
              100.45117730819405,
              6.931443962893811
            ],
            [
              100.45343929163352,
              6.932174590218406
            ],
            [
              100.45572643032428,
              6.932527228998962
            ],
            [
              100.458075816908,
              6.931944300102505
            ],
            [
              100.46036883463002,
              6.932208513349493
            ],
            [
              100.4627011447808,
              6.9318820750912575
            ],
            [
              100.46497671581234,
              6.932408507269469
            ],
            [
              100.46723876188828,
              6.9331383083487825
            ],
            [
              100.46958903601077,
              6.932541630912787
            ],
            [
              100.47178945163442,
              6.934198161182082
            ],
            [
              100.47401134365215,
              6.93553194036102
            ],
            [
              100.4762282844299,
              6.936940334201457
            ],
            [
              100.47850881797918,
              6.9373924604755315
            ],
            [
              100.48084166881927,
              6.937057699463611
            ],
            [
              100.48323685695146,
              6.9357851572257205
            ],
            [
              100.48557966428015,
              6.935300357935224
            ],
            [
              100.48794639233522,
              6.934455570508708
            ],
            [
              100.49036662991799,
              6.9328055446256345
            ],
            [
              100.49272971487179,
              6.9320151749825
            ],
            [
              100.49501632732185,
              6.932375362297717
            ],
            [
              100.4974144353727,
              6.931057702438834
            ],
            [
              100.49965341995623,
              6.932134561674865
            ],
            [
              100.50194618662148,
              6.932402068563689
            ],
            [
              100.50428586811518,
              6.931963407873315
            ],
            [
              100.50658105490918,
              6.9321944156237505
            ],
            [
              100.50887108277041,
              6.93250307317604
            ],
            [
              100.51110756080472,
              6.93361793782744
            ],
            [
              100.5133808196933,
              6.934179132381608
            ],
            [
              100.51568402688693,
              6.934289413449511
            ],
            [
              100.51796546589847,
              6.934727463144306
            ],
            [
              100.52023635187938,
              6.935324456710253
            ],
            [
              100.51950081899997,
              6.945181751
            ],
            [
              100.51200573800003,
              6.945116239000015
            ],
            [
              100.50608389400003,
              6.948184508
            ],
            [
              100.50627681399999,
              6.952326255
            ],
            [
              100.51082881999997,
              6.957161897999981
            ],
            [
              100.50993671600003,
              6.960046042999977
            ],
            [
              100.503732469,
              6.962225714
            ],
            [
              100.50314034500002,
              6.967465162
            ],
            [
              100.50699019199999,
              6.975462516
            ],
            [
              100.51140357999998,
              6.978759943999989
            ],
            [
              100.512420223,
              6.982085751999989
            ],
            [
              100.519572401,
              6.988537690999976
            ],
            [
              100.52161500800003,
              6.992872083
            ],
            [
              100.523494971,
              6.985258639999984
            ],
            [
              100.52849545499998,
              6.979448306999984
            ],
            [
              100.532153967,
              6.980802848999986
            ],
            [
              100.53419407400003,
              6.978464310999982
            ],
            [
              100.53478386199998,
              6.97526385499998
            ],
            [
              100.537980941,
              6.975227225000026
            ],
            [
              100.54006453,
              6.972994627
            ],
            [
              100.54137155199999,
              6.975659904999986
            ],
            [
              100.53976605999998,
              6.978087429000027
            ],
            [
              100.538556761,
              6.988228746
            ],
            [
              100.54032066299999,
              6.991080257000021
            ],
            [
              100.54680932399998,
              6.994792223
            ],
            [
              100.54637376,
              6.996046508
            ],
            [
              100.54825642100002,
              6.998534768000013
            ],
            [
              100.54749448299998,
              7.001054114999988
            ],
            [
              100.553723075,
              7.000506124000026
            ],
            [
              100.559396548,
              7.003375925
            ],
            [
              100.55983505799998,
              7.00421049800002
            ],
            [
              100.557831926,
              7.005800575000023
            ],
            [
              100.558076562,
              7.009594777000018
            ],
            [
              100.56331702799997,
              7.013045695000017
            ],
            [
              100.56883486100003,
              7.011660915999983
            ],
            [
              100.57545915100002,
              7.013147302
            ],
            [
              100.57895554100003,
              7.010622158999979
            ],
            [
              100.580878983,
              7.010768283
            ],
            [
              100.58202039100001,
              7.013943677999976
            ],
            [
              100.58854041900003,
              7.016289977999975
            ],
            [
              100.59287013300002,
              7.020630266000012
            ],
            [
              100.60114477500002,
              7.025560966
            ],
            [
              100.602287698,
              7.032962221999981
            ],
            [
              100.60694404399999,
              7.037726494000026
            ],
            [
              100.60824721900002,
              7.041789559
            ],
            [
              100.60568032700002,
              7.04590851
            ],
            [
              100.60574732200001,
              7.047880847999977
            ],
            [
              100.595911409,
              7.045376658
            ],
            [
              100.595716413,
              7.049333269999977
            ],
            [
              100.59240185800002,
              7.049277140000015
            ],
            [
              100.58998035299999,
              7.052016932000015
            ],
            [
              100.588060074,
              7.052376276000018
            ],
            [
              100.587718237,
              7.056792445999974
            ],
            [
              100.580239506,
              7.056234184
            ],
            [
              100.578157583,
              7.061230336999984
            ],
            [
              100.57572029099998,
              7.06091902999998
            ],
            [
              100.575285722,
              7.066835174
            ],
            [
              100.57297892623842,
              7.066739364284258
            ]
          ]
        ]
      }
    }
  ]
}
