{
  "type": "FeatureCollection",
  "features": [
    {
      "type": "Feature",
      "properties": {
        "zone_id": 2,
        "name": "Zone 2",
        "name_th": "โซน 2",
        "region": "west",
        "basis": "conceptual_water_flow",
        "fill": "#3F8F91",
        "fill-opacity": 0.58,
        "stroke": "#285E60",
        "stroke-width": 2
      },
      "geometry": {
        "type": "Polygon",
        "coordinates": [
          [
            [
              100.4286268095366,
              6.936912387684428
            ],
            [
              100.4286268095366,
              6.936912387684429
            ],
            [
              100.42874343659433,
              6.939021353879484
            ],
            [
              100.42892593631349,
              6.9411511228504885
            ],
            [
              100.42899065424763,
              6.943243692177853
            ],
            [
              100.42932793951516,
              6.945422342057317
            ],
            [
              100.42960809465684,
              6.947582946744955
            ],
            [
              100.43000138827918,
              6.949779279501194
            ],
            [
              100.42978443958374,
              6.9517828896236455
            ],
            [
              100.42954493977923,
              6.953779378092045
            ],
            [
              100.43006103672731,
              6.956014487700989
            ],
            [
              100.43096777641625,
              6.958372958039854
            ],
            [
              100.4304426211998,
              6.96027923464756
            ],
            [
              100.42972608124464,
              6.962125073541326
            ],
            [
              100.42913418496894,
              6.964010275780752
            ],
            [
              100.42890776106954,
              6.966010893562709
            ],
            [
              100.42787320595161,
              6.9677563085621275
            ],
            [
              100.4269288882898,
              6.96953022144495
            ],
            [
              100.42540014898341,
              6.971119577590262
            ],
            [
              100.42325547489254,
              6.972514422117541
            ],
            [
              100.4214417040389,
              6.974013764082709
            ],
            [
              100.4196301826631,
              6.975513815504781
            ],
            [
              100.41962239968022,
              6.977583496238614
            ],
            [
              100.41884397932472,
              6.9794098077435
            ],
            [
              100.41742323538638,
              6.9810332727388325
            ],
            [
              100.41613681835031,
              6.982699159482925
            ],
            [
              100.41538960507177,
              6.984535330671125
            ],
            [
              100.41452181154277,
              6.986333423378613
            ],
            [
              100.41393097111721,
              6.988218980428345
            ],
            [
              100.41332080945257,
              6.990098436897785
            ],
            [
              100.41220481841769,
              6.991818152033966
            ],
            [
              100.41114152147892,
              6.993554509413684
            ],
            [
              100.41035126964657,
              6.995377096912851
            ],
            [
              100.4095572515558,
              6.99719849635013
            ],
            [
              100.4095572515558,
              6.997198496350132
            ],
            [
              100.407072702,
              6.992311126
            ],
            [
              100.40271959400002,
              6.993312627000023
            ],
            [
              100.40237373000002,
              6.994718713
            ],
            [
              100.39981692600003,
              6.994277660000023
            ],
            [
              100.400867296,
              6.993455561000019
            ],
            [
              100.39940556,
              6.993460165999977
            ],
            [
              100.399259514,
              6.992270137999981
            ],
            [
              100.395360321,
              6.99250691200001
            ],
            [
              100.401396664,
              7.009850178000022
            ],
            [
              100.398141163,
              7.009363724000025
            ],
            [
              100.396567383,
              7.007650066
            ],
            [
              100.37686925499997,
              7.012359054
            ],
            [
              100.37310285500001,
              7.01591252999998
            ],
            [
              100.37207735499999,
              7.025073677000023
            ],
            [
              100.36410606700002,
              7.029425845
            ],
            [
              100.35913427499997,
              7.029298107999978
            ],
            [
              100.35717622200002,
              7.031489427
            ],
            [
              100.35432964900002,
              7.030396903999986
            ],
            [
              100.35259743900002,
              7.033496789000026
            ],
            [
              100.35238442500003,
              7.031171002
            ],
            [
              100.35346018500002,
              7.025567497
            ],
            [
              100.34482172000003,
              7.02883849
            ],
            [
              100.340970636,
              7.02586498
            ],
            [
              100.336395622,
              7.024782075000019
            ],
            [
              100.33357392699997,
              7.027388095
            ],
            [
              100.33134036400003,
              7.02691070100002
            ],
            [
              100.32950759,
              7.028245334000019
            ],
            [
              100.32581010500002,
              7.035655323000015
            ],
            [
              100.314956311,
              7.036117368000021
            ],
            [
              100.31287165700002,
              7.034777073999976
            ],
            [
              100.30295824199999,
              7.039408641000023
            ],
            [
              100.30025449300001,
              7.032347061
            ],
            [
              100.294467597,
              7.030987042
            ],
            [
              100.29253424299998,
              7.031728394000027
            ],
            [
              100.28589555899998,
              7.023838631999979
            ],
            [
              100.28214026900002,
              7.02230067
            ],
            [
              100.277214335,
              7.02227420600002
            ],
            [
              100.27320145800002,
              7.016038340000023
            ],
            [
              100.27026725000002,
              7.016644948000021
            ],
            [
              100.269389806,
              7.015641426
            ],
            [
              100.26822967700002,
              7.016829272
            ],
            [
              100.26581851100002,
              7.015856166
            ],
            [
              100.26317464599998,
              7.018571602
            ],
            [
              100.26052965500003,
              7.017640014999984
            ],
            [
              100.25845670299998,
              7.013581007000028
            ],
            [
              100.25450960400002,
              7.011834790000023
            ],
            [
              100.254694853,
              7.013370130999988
            ],
            [
              100.253181123,
              7.013875330000019
            ],
            [
              100.253799764,
              7.015042712000024
            ],
            [
              100.25259346399997,
              7.015273429999979
            ],
            [
              100.24847296299998,
              7.010555053000019
            ],
            [
              100.247680753,
              7.01136694500002
            ],
            [
              100.24401226499998,
              7.009172254000021
            ],
            [
              100.241396194,
              7.00507643100002
            ],
            [
              100.241001901,
              7.006568855000012
            ],
            [
              100.239858761,
              7.004583219999972
            ],
            [
              100.236464963,
              7.005213942000012
            ],
            [
              100.23746790299998,
              7.002818301
            ],
            [
              100.23669923199998,
              7.000212573
            ],
            [
              100.234599442,
              7.000038811000024
            ],
            [
              100.230756589,
              6.995616457999972
            ],
            [
              100.21428421600001,
              6.99120467900002
            ],
            [
              100.20517430000001,
              6.984337072000017
            ],
            [
              100.199611915,
              6.982687746000011
            ],
            [
              100.199194219,
              6.979592118000028
            ],
            [
              100.19670855499999,
              6.979137761
            ],
            [
              100.19413197799997,
              6.97539065
            ],
            [
              100.193870538,
              6.971032111
            ],
            [
              100.192120322,
              6.96765831
            ],
            [
              100.19449407899998,
              6.964402064000012
            ],
            [
              100.190878859,
              6.947244076
            ],
            [
              100.20213068100003,
              6.923969203000013
            ],
            [
              100.209147337,
              6.91920942500002
            ],
            [
              100.21428274599998,
              6.918304998999986
            ],
            [
              100.213882366,
              6.915204128000028
            ],
            [
              100.21066752899998,
              6.913714847
            ],
            [
              100.207874113,
              6.908430093
            ],
            [
              100.207161198,
              6.89575548900001
            ],
            [
              100.208793867,
              6.888435748
            ],
            [
              100.21155477600001,
              6.887710137
            ],
            [
              100.21293196300002,
              6.883268047
            ],
            [
              100.21870256400001,
              6.879544443999976
            ],
            [
              100.21859975799998,
              6.87192058
            ],
            [
              100.22061917100001,
              6.870784319
            ],
            [
              100.21767062200001,
              6.868598726000016
            ],
            [
              100.214817186,
              6.861652976000016
            ],
            [
              100.210974223,
              6.857187054
            ],
            [
              100.21176133199998,
              6.853552552
            ],
            [
              100.21070776,
              6.84614859200002
            ],
            [
              100.231422758,
              6.850975022
            ],
            [
              100.23799197599999,
              6.856726203
            ],
            [
              100.24349684100002,
              6.854624979999983
            ],
            [
              100.24687786599998,
              6.850807944
            ],
            [
              100.24704580000002,
              6.84883294399998
            ],
            [
              100.248262124,
              6.848696116999974
            ],
            [
              100.250367327,
              6.852132352000012
            ],
            [
              100.251369581,
              6.859572277999973
            ],
            [
              100.256940681,
              6.860071474
            ],
            [
              100.258256544,
              6.861825738
            ],
            [
              100.259231704,
              6.860505553999985
            ],
            [
              100.26009307800001,
              6.861995020999984
            ],
            [
              100.25907944699998,
              6.863407918
            ],
            [
              100.26314573600001,
              6.863560883
            ],
            [
              100.26160311199999,
              6.86759321400001
            ],
            [
              100.273540814,
              6.885969682
            ],
            [
              100.279071365,
              6.885862780000025
            ],
            [
              100.28418619399997,
              6.892813285999978
            ],
            [
              100.28843037799999,
              6.890187421
            ],
            [
              100.29132002300003,
              6.89064945299998
            ],
            [
              100.29226373699998,
              6.893088807000026
            ],
            [
              100.29561958,
              6.894156805000023
            ],
            [
              100.29769508499999,
              6.896773960000019
            ],
            [
              100.29996858700002,
              6.896897318000015
            ],
            [
              100.30219383999997,
              6.899719349
            ],
            [
              100.305043646,
              6.897672886
            ],
            [
              100.30629566099998,
              6.898323358000027
            ],
            [
              100.31149615599998,
              6.896457537
            ],
            [
              100.31387923099999,
              6.897833873000025
            ],
            [
              100.315964528,
              6.896824238000022
            ],
            [
              100.31918709500002,
              6.900285595000014
            ],
            [
              100.319730838,
              6.903243061000012
            ],
            [
              100.321725921,
              6.905382142
            ],
            [
              100.321159427,
              6.906615672999976
            ],
            [
              100.32295574300002,
              6.908105515999978
            ],
            [
              100.32262894500002,
              6.909807195999974
            ],
            [
              100.32350424100002,
              6.909186879
            ],
            [
              100.32544264,
              6.913335035999978
            ],
            [
              100.32934079900002,
              6.912890788000027
            ],
            [
              100.331562959,
              6.914058058000023
            ],
            [
              100.33368350900002,
              6.916724945
            ],
            [
              100.332746,
              6.917861023
            ],
            [
              100.33353659800002,
              6.920721953
            ],
            [
              100.34112519400003,
              6.923780433
            ],
            [
              100.34271481299999,
              6.92732851300002
            ],
            [
              100.36122043799998,
              6.929441584000017
            ],
            [
              100.365363544,
              6.931408318000024
            ],
            [
              100.373153398,
              6.930573806999973
            ],
            [
              100.37285358899999,
              6.933880612
            ],
            [
              100.39254380699998,
              6.936497348999978
            ],
            [
              100.39243524400001,
              6.937863322999988
            ],
            [
              100.39732486999998,
              6.937715041
            ],
            [
              100.40217192799997,
              6.940544726999974
            ],
            [
              100.403874303,
              6.937788281999985
            ],
            [
              100.41494351699998,
              6.939171262
            ],
            [
              100.415565028,
              6.934194459000025
            ],
            [
              100.418384892,
              6.934254916999976
            ],
            [
              100.421417571,
              6.932305634999977
            ],
            [
              100.4286268095366,
              6.936912387684428
            ]
          ]
        ]
      }
    }
  ]
}
