{
  "type": "FeatureCollection",
  "features": [
    {
      "type": "Feature",
      "properties": {
        "zone_id": 1,
        "name": "Zone 1",
        "name_th": "โซน 1",
        "region": "south",
        "basis": "conceptual_water_flow",
        "fill": "#4C3F8F",
        "fill-opacity": 0.58,
        "stroke": "#30275F",
        "stroke-width": 2
      },
      "geometry": {
        "type": "Polygon",
        "coordinates": [
          [
            [
              100.52023635187938,
              6.935324456710253
            ],
            [
              100.51796546589847,
              6.934727463144306
            ],
            [
              100.51568402688693,
              6.934289413449511
            ],
            [
              100.5133808196933,
              6.934179132381608
            ],
            [
              100.51110756080472,
              6.93361793782744
            ],
            [
              100.50887108277041,
              6.93250307317604
            ],
            [
              100.50658105490918,
              6.9321944156237505
            ],
            [
              100.50428586811518,
              6.931963407873315
            ],
            [
              100.50194618662148,
              6.932402068563689
            ],
            [
              100.49965341995623,
              6.932134561674865
            ],
            [
              100.4974144353727,
              6.931057702438834
            ],
            [
              100.49501632732185,
              6.932375362297717
            ],
            [
              100.49272971487179,
              6.9320151749825
            ],
            [
              100.49036662991799,
              6.9328055446256345
            ],
            [
              100.48794639233522,
              6.934455570508708
            ],
            [
              100.48557966428015,
              6.935300357935224
            ],
            [
              100.48323685695146,
              6.9357851572257205
            ],
            [
              100.48084166881927,
              6.937057699463611
            ],
            [
              100.47850881797918,
              6.9373924604755315
            ],
            [
              100.4762282844299,
              6.936940334201457
            ],
            [
              100.47401134365215,
              6.93553194036102
            ],
            [
              100.47178945163442,
              6.934198161182082
            ],
            [
              100.46958903601077,
              6.932541630912787
            ],
            [
              100.46723876188828,
              6.9331383083487825
            ],
            [
              100.46497671581234,
              6.932408507269469
            ],
            [
              100.4627011447808,
              6.9318820750912575
            ],
            [
              100.46036883463002,
              6.932208513349493
            ],
            [
              100.458075816908,
              6.931944300102505
            ],
            [
              100.45572643032428,
              6.932527228998962
            ],
            [
              100.45343929163352,
              6.932174590218406
            ],
            [
              100.45117730819405,
              6.931443962893811
            ],
            [
              100.44889815234927,
              6.930971418780971
            ],
            [
              100.4466230737718,
              6.9304376406318955
            ],
            [
              100.4466230737718,
              6.930437640631894
            ],
            [
              100.44691051199999,
              6.926715533
            ],
            [
              100.448258716,
              6.924852209
            ],
            [
              100.44675382600002,
              6.924197346000028
            ],
            [
              100.44704770099997,
              6.92143953599998
            ],
            [
              100.44865922600002,
              6.920766674999982
            ],
            [
              100.44859608000002,
              6.91392975399998
            ],
            [
              100.449886843,
              6.91156378300002
            ],
            [
              100.45108086,
              6.912031603
            ],
            [
              100.450889098,
              6.910400047999985
            ],
            [
              100.45511966700002,
              6.90735962399998
            ],
            [
              100.45520080900002,
              6.904656713
            ],
            [
              100.45633056000003,
              6.905517987
            ],
            [
              100.457256088,
              6.904331354000021
            ],
            [
              100.45447911500003,
              6.900555699
            ],
            [
              100.45697924199999,
              6.900450723
            ],
            [
              100.45929059000002,
              6.892776017000017
            ],
            [
              100.456414284,
              6.89004594
            ],
            [
              100.45800055299998,
              6.889115851999975
            ],
            [
              100.45592606100001,
              6.888542175
            ],
            [
              100.45557504200002,
              6.885965436999982
            ],
            [
              100.459000134,
              6.882352981999986
            ],
            [
              100.45767119700002,
              6.881565288
            ],
            [
              100.45799748600001,
              6.879815071999985
            ],
            [
              100.46037469200002,
              6.879227811000021
            ],
            [
              100.45988342200002,
              6.87694959800001
            ],
            [
              100.45653466099998,
              6.873643195
            ],
            [
              100.457669147,
              6.870534994000025
            ],
            [
              100.45638187499998,
              6.870878601000015
            ],
            [
              100.45609906700003,
              6.868017609999981
            ],
            [
              100.45760415,
              6.861815332
            ],
            [
              100.459918798,
              6.859846485999981
            ],
            [
              100.46176209499998,
              6.862303568000016
            ],
            [
              100.46374572600001,
              6.859569866000015
            ],
            [
              100.46827223100001,
              6.859706556
            ],
            [
              100.46790698400002,
              6.857838188000017
            ],
            [
              100.466541629,
              6.858479362000026
            ],
            [
              100.46672699200002,
              6.857340916999988
            ],
            [
              100.46337994700002,
              6.855195642000012
            ],
            [
              100.464476473,
              6.855124547
            ],
            [
              100.46367379399999,
              6.853108927
            ],
            [
              100.46530507900002,
              6.852939411000023
            ],
            [
              100.46576200800001,
              6.851140148000013
            ],
            [
              100.46404555599997,
              6.850375902999986
            ],
            [
              100.46508204700001,
              6.849673438000025
            ],
            [
              100.46388762999999,
              6.849396386000024
            ],
            [
              100.46384517500002,
              6.848176965999983
            ],
            [
              100.46499698399998,
              6.848055531999989
            ],
            [
              100.46396032500002,
              6.843622407
            ],
            [
              100.46030486,
              6.842460533
            ],
            [
              100.45823719200001,
              6.843205828
            ],
            [
              100.45787884200001,
              6.838620696000021
            ],
            [
              100.45487416399999,
              6.838921889
            ],
            [
              100.44901325,
              6.836670615
            ],
            [
              100.45025307999998,
              6.835567769000022
            ],
            [
              100.45531816699997,
              6.836196460999986
            ],
            [
              100.457822089,
              6.834275596999987
            ],
            [
              100.45971621400003,
              6.834378115999982
            ],
            [
              100.462262441,
              6.830313338999986
            ],
            [
              100.461724607,
              6.828660501
            ],
            [
              100.45927631500001,
              6.827877683999986
            ],
            [
              100.459326219,
              6.825771997
            ],
            [
              100.46333481099998,
              6.823009488000025
            ],
            [
              100.46422667899998,
              6.820773885
            ],
            [
              100.46675625400002,
              6.820205316999989
            ],
            [
              100.46519189000003,
              6.819074721999982
            ],
            [
              100.46611567399998,
              6.81643103
            ],
            [
              100.46916018399997,
              6.815677484
            ],
            [
              100.471768784,
              6.810641235999981
            ],
            [
              100.47192314,
              6.813787112999989
            ],
            [
              100.48307707999999,
              6.813434009
            ],
            [
              100.483472871,
              6.810915421
            ],
            [
              100.49650642,
              6.811839497999983
            ],
            [
              100.519903215,
              6.810768291999977
            ],
            [
              100.53662925200001,
              6.803361893999977
            ],
            [
              100.54333992599999,
              6.795123577000027
            ],
            [
              100.54639387399999,
              6.794516895000015
            ],
            [
              100.55033847099998,
              6.797614004000025
            ],
            [
              100.557251474,
              6.79604121
            ],
            [
              100.56502852800003,
              6.788852055
            ],
            [
              100.57083673099999,
              6.787408519999985
            ],
            [
              100.581772,
              6.787416921999977
            ],
            [
              100.58374544600002,
              6.788684585
            ],
            [
              100.58322564500003,
              6.789937048000013
            ],
            [
              100.585948987,
              6.793618106999986
            ],
            [
              100.585791353,
              6.797005678
            ],
            [
              100.59617804200002,
              6.797375922000015
            ],
            [
              100.59734789800001,
              6.801153078000027
            ],
            [
              100.59666506299999,
              6.805901539999979
            ],
            [
              100.595035629,
              6.807670262999977
            ],
            [
              100.59621134499997,
              6.809396672999981
            ],
            [
              100.59569374900002,
              6.812195583
            ],
            [
              100.593430356,
              6.81582888600002
            ],
            [
              100.584998639,
              6.820310386000017
            ],
            [
              100.58904679400001,
              6.849032491
            ],
            [
              100.58768043499998,
              6.852862533
            ],
            [
              100.58896287300001,
              6.859593462000021
            ],
            [
              100.58641450099998,
              6.862825582000028
            ],
            [
              100.586064964,
              6.865829481
            ],
            [
              100.59006527999998,
              6.870461120000016
            ],
            [
              100.589135677,
              6.873528130000011
            ],
            [
              100.59125655000003,
              6.87748776
            ],
            [
              100.590493401,
              6.880210760000011
            ],
            [
              100.593541427,
              6.881412899
            ],
            [
              100.59376656299997,
              6.885129181000025
            ],
            [
              100.59205952100001,
              6.887058492999984
            ],
            [
              100.58484484000002,
              6.885822006000012
            ],
            [
              100.58288295900002,
              6.879000573999974
            ],
            [
              100.58152521800002,
              6.878008668
            ],
            [
              100.57641192,
              6.881262396000011
            ],
            [
              100.574442192,
              6.884136539
            ],
            [
              100.57235848300002,
              6.882523272000014
            ],
            [
              100.57214514600003,
              6.879306397
            ],
            [
              100.56828477200003,
              6.87645429600002
            ],
            [
              100.55038128299998,
              6.877033375999986
            ],
            [
              100.548939738,
              6.875574031999975
            ],
            [
              100.53526126000003,
              6.874124715
            ],
            [
              100.53642063900003,
              6.879788598
            ],
            [
              100.54096075400003,
              6.88375040699998
            ],
            [
              100.54035004999997,
              6.888249839000025
            ],
            [
              100.52962854499998,
              6.893090173000019
            ],
            [
              100.53027189300002,
              6.895846020000022
            ],
            [
              100.527931814,
              6.898057094000023
            ],
            [
              100.52448207100002,
              6.90582284300001
            ],
            [
              100.52205719900002,
              6.907896092999977
            ],
            [
              100.52026028400002,
              6.914900306999982
            ],
            [
              100.52218288799997,
              6.919392029999983
            ],
            [
              100.522688351,
              6.927947722999988
            ],
            [
              100.52054523599998,
              6.931184925000025
            ],
            [
              100.52023635187938,
              6.935324456710253
            ]
          ]
        ]
      }
    }
  ]
}
